MOLNIYA 2-9             
1 07276U 74026A   22221.03400742  .00000151  00000+0  00000+0 0  9995
2 07276  64.2807 219.8057 6460825 280.7057  17.2662  2.45097481250677
MOLNIYA 2-10            
1 07376U 74056A   22220.60615120 -.00001076  00000+0  00000+0 0  9997
2 07376  64.1910  89.4097 6735664 286.3222  13.6252  2.01167646351400
MOLNIYA 1-S             
1 07392U 74060A   22220.82572333 -.00000042  00000+0  00000+0 0  9994
2 07392   4.9874 282.1522 0011833 210.1535 194.3071  1.00198772120058
MOLNIYA 1-29            
1 07780U 75036A   22220.01994478  .00000152  00000+0 -12337-1 0  9998
2 07780  63.4165 209.4608 6895508 288.7085  11.9651  2.00629367346659
MOLNIYA 2-14            
1 08195U 75081A   22220.14062940  .00001129  00000+0  00000+0 0  9999
2 08195  63.3830 182.4137 6798142 292.9266  11.4374  2.02062532343931
MOLNIYA 1-32            
1 08601U 76006A   22216.51877428 -.00000359  00000+0 -23463-2 0  9997
2 08601  63.4786 290.8913 7249992 283.7702  11.2557  2.00093862 53621
MOLNIYA 1-36            
1 09880U 77021A   22220.19746733  .00000712  00000+0  00000+0 0  9998
2 09880  63.4795 261.7664 7176334 289.6873  10.2992  2.00895852230408
MOLNIYA 3-8             
1 10455U 77105A   22221.40180036 -.00000233  00000+0 -73138-3 0  9990
2 10455  63.3846 349.8170 7370613 282.2454  10.8323  2.00846490328129
MOLNIYA 1-40            
1 10925U 78055A   22219.58245263  .00000478  00000+0  00000+0 0  9990
2 10925  63.3487  40.9116 7262074 280.6644  11.7690  2.00692706323700
MOLNIYA 3-10            
1 11057U 78095A   22220.80300524  .00000159  00000+0  10052-2 0  9997
2 11057  63.1693  19.9594 5793168 310.7087  11.7268  4.09853492385887
MOLNIYA 3-13            
1 11896U 80063A   22219.81237733  .00000395  00000+0  00000+0 0  9997
2 11896  62.6938 130.9315 7100789 276.3282  14.1141  2.00654357308123
MOLNIYA 1-49            
1 12156U 81009A   22220.21288219  .00000090  00000+0 -31950-3 0  9994
2 12156  61.6994 157.7200 7266759 263.0073  17.3347  2.05699471222551
MOLNIYA 1-52            
1 13012U 81123A   22220.63985343 -.00000609  00000+0 -15845-2 0  9992
2 13012  61.7494 271.3141 7242497 255.4668  20.8999  2.00412671297693
MOLNIYA 1-53            
1 13070U 82015A   22220.93788521 -.00000980  00000+0  63849-2 0  9997
2 13070  62.6394 207.7230 7037659 282.8061  12.6376  2.00798945296307
MOLNIYA 3-20            
1 13875U 83015A   22220.43305256  .00001251  00000+0  21682-2 0  9996
2 13875  62.7256 344.5673 7402029 258.4995  18.0232  2.00452165224753
MOLNIYA 1-56            
1 13890U 83019A   22213.20638101 -.00000061  00000+0 -38678-3 0  9996
2 13890  63.0029  10.9745 7447278 264.4179  15.3271  1.99982893287498
MOLNIYA 1-63            
1 15429U 84124A   22221.20173948  .00001117  00000+0  00000+0 0  9991
2 15429  63.7481 162.7754 6639023 259.3985 193.1620  2.00787675275866
MOLNIYA 3-24            
1 15738U 85040A   22219.79830155 -.00000122  00000+0  00000+0 0  9999
2 15738  63.6697  73.2385 6813101 247.2956  30.6874  2.55627150305184
MOLNIYA 3-27            
1 16393U 85117A   22218.60389650 -.00000157  00000+0  00000+0 0  9998
2 16393  64.3988  75.0177 6987282 248.1991  27.9282  2.12396918275246
MOLNIYA 1-69            
1 17078U 86089A   22215.72226868  .00000054  00000+0  00000+0 0  9994
2 17078  63.9941 182.1246 6644553 257.8930  25.8363  2.00683581261771
MOLNIYA 3-31            
1 17328U 87008A   22220.79758807  .00000396  00000+0  00000+0 0  9999
2 17328  63.6957 122.5423 7043630 253.8242  23.8418  2.00597558256940
MOLNIYA 1-71            
1 18946U 88017A   22220.74463162 -.00000240  00000+0  00000+0 0  9998
2 18946  63.4199 116.6515 7157069 256.4393  21.2678  2.00653102252143
MOLNIYA 1-75            
1 19807U 89014A   22220.95656624  .00000147  00000+0  00000+0 0  9998
2 19807  64.0562 278.8422 6854524 266.8445  19.5326  2.00581393245112
MOLNIYA 1-80            
1 21118U 91012A   22220.27540270 -.00000911  00000+0  00000+0 0  9991
2 21118  65.1915 327.2779 6789347 276.9837  16.2801  2.05245323232040
MOLNIYA 3-40            
1 21196U 91022A   22219.56627516  .00000764  00000+0  00000+0 0  9992
2 21196  65.1082 320.9573 6819822 273.7796  17.1689  2.02991838230727
MOLNIYA 1-81            
1 21426U 91043A   22220.37439976  .00000069  00000+0  00000+0 0  9991
2 21426  64.1154 337.4652 7098168 266.7344  17.4883  2.00632025228204
MOLNIYA 3-41            
1 21706U 91065A   22220.27378297 -.00000701  00000+0  00000+0 0  9997
2 21706  64.1024 160.4395 6841958 255.4501  25.1255  2.04354002227928
MOLNIYA 3-42            
1 22178U 92067A   22219.15129616  .00000226  00000+0  00000+0 0  9999
2 22178  64.6763 210.5959 6428245 266.2795  23.5601  2.20435596225634
MOLNIYA 1-86            
1 22671U 93035A   22220.77716400  .00000335  00000+0  38309-3 0  9994
2 22671  63.0905 206.5400 4859556   7.8362 357.6210  5.62681532355249
MOLNIYA 1-87            
1 22949U 93079A   22220.80426122  .00001103  00000+0  00000+0 0  9990
2 22949  63.9799  86.2824 6878012 284.1181  13.3362  2.02863163210347
MOLNIYA 1-88            
1 23420U 94081A   22220.51295643  .00000097  00000+0  00000+0 0  9990
2 23420  64.2804 184.2099 5803306 282.1313  21.6214  3.34498059115441
MOLNIYA 3-47            
1 23642U 95042A   22220.76059727  .00001192  00000+0  00000+0 0  9999
2 23642  64.0926  68.0782 6929175 284.3819  12.9101  2.01946973198161
MOLNIYA 1-90            
1 24960U 97054A   22220.80951671  .00000064  00000+0 -14002-2 0  9990
2 24960  63.6393 150.7782 6113522 298.3884  13.7601  3.18689660209674
MOLNIYA 1-91            
1 25485U 98054A   22220.86172279  .00000155  00000+0  22925-2 0  9992
2 25485  63.0333 142.0352 6774585 291.9000  16.3700  2.36444950179623
MOLNIYA 3-50            
1 25847U 99036A   22220.35390107  .00000245  00000+0 -64267-3 0  9998
2 25847  63.2029 326.3698 7381058 282.0567  10.8645  2.00649196169152
